EYESAT-1 (AO-27)        
1 22825U 93061C   17266.84985603 -.00000010  00000-0  13843-4 0  9998
2 22825  98.8241 233.7006 0009257  48.3887 311.8087 14.30006811251230
CUTE-1 (CO-55)          
1 27844U 03031E   17268.55031518  .00000053  00000-0  43831-4 0  9995
2 27844  98.6907 276.0999 0010786  60.5637 299.6616 14.22061500738588
CUBESAT XI-IV (CO-57)   
1 27848U 03031J   17268.57736475  .00000041  00000-0  38722-4 0  9995
2 27848  98.6999 276.4272 0010758  69.3425 290.8905 14.21673126738432
CUBESAT XI 5            
1 28895U 05043F   17268.41005455  .00000215  00000-0  50258-4 0  9994
2 28895  97.8769  66.1528 0016818 182.0512 178.0625 14.63441074634917
CUTE-1.7+APD II (CO-65) 
1 32785U 08021C   17268.51175762  .00000296  00000-0  37890-4 0  9992
2 32785  97.5622 288.1810 0012826 189.3169 170.7812 14.87956889509816
COMPASS-1               
1 32787U 08021E   17265.01718576  .00000536  00000-0  57080-4 0  9992
2 32787  97.5533 294.3099 0012926 168.2470 191.9054 14.92716718509947
AAUSAT-II               
1 32788U 08021F   17268.83648763  .00001034  00000-0  10200-3 0  9992
2 32788  97.5510 300.9911 0012865 147.9972 212.2032 14.94006875510700
DELFI-C3 (DO-64)        
1 32789U 08021G   17268.61813448  .00001789  00000-0  12932-3 0  9994
2 32789  97.5500 324.6987 0014374 117.5963 242.6726 15.05223769511878
CANX-2                  
1 32790U 08021H   17268.51009863  .00000294  00000-0  37884-4 0  9997
2 32790  97.5607 286.4894 0013457 191.4692 168.6220 14.87677115509679
SEEDS II (CO-66)        
1 32791U 08021J   17268.62384303  .00000531  00000-0  60020-4 0  9997
2 32791  97.5576 292.9579 0013632 172.8266 187.3150 14.90318750510103
SWISSCUBE               
1 35932U 09051B   17268.32979142  .00000202  00000-0  56814-4 0  9990
2 35932  98.5103  48.7086 0006651 308.5757  51.4843 14.56055530424858
BEESAT                  
1 35933U 09051C   17268.37676526  .00000186  00000-0  53100-4 0  9992
2 35933  98.5142  50.1321 0005065 326.2049  33.8825 14.56170579424923
ITUPSAT 1               
1 35935U 09051E   17268.35168162  .00000165  00000-0  49019-4 0  9995
2 35935  98.5255  50.3608 0007276 316.4132  43.6489 14.55360114424773
TISAT 1                 
1 36799U 10035E   17268.30977836  .00000702  00000-0  77941-4 0  9991
2 36799  98.0737  33.1385 0012326   4.5653 355.5674 14.90509588390499
M-CUBED & EXP-1 PRIME   
1 37855U 11061F   17268.36956111  .00001238  00000-0  72173-4 0  9991
2 37855 101.7057 190.6677 0179813 145.4139 215.8924 15.03378326321378
HORYU 2                 
1 38340U 12025D   17268.59703610  .00000283  00000-0  49850-4 0  9996
2 38340  98.3786 276.0685 0011125 338.9962  21.0788 14.75401642277685
STRAND-1                
1 39090U 13009E   17268.56928279  .00000019  00000-0  22164-4 0  9995
2 39090  98.5450 113.0246 0009446   9.8519 350.2850 14.34984471239851
BRITE-AUSTRIA           
1 39091U 13009F   17268.50966111  .00000021  00000-0  22676-4 0  9998
2 39091  98.5416 112.3206 0010872  16.6484 343.5057 14.35041659239873
UNIBRITE                
1 39092U 13009G   17268.86643406  .00000001  00000-0  15841-4 0  9991
2 39092  98.5426 112.3550 0009613   9.9727 350.1647 14.34915854239913
AIST-2                  
1 39133U 13015D   17268.88569305  .00000266  00000-0  31406-4 0  9999
2 39133  64.8742 327.3061 0038207 265.1255  94.5502 15.04364040243449
SOMP                    
1 39134U 13015E   17268.42516190  .00002834  00000-0  14520-3 0  9994
2 39134  64.8644 262.8220 0038953 248.1518 111.5463 15.18175962244313
BEESAT-3                
1 39135U 13015F   17268.42224363  .00002028  00000-0  11428-3 0  9992
2 39135  64.8683 272.8557 0034239 267.6310  92.0895 15.15873807244503
BEESAT-2                
1 39136U 13015G   17268.43355780  .00001834  00000-0  10578-3 0  9991
2 39136  64.8688 274.9131 0034180 268.0115  91.7096 15.15379176244467
NEE-01 PEGASUS          
1 39151U 13018B   17268.72151923  .00000253  00000-0  40621-4 0  9993
2 39151  97.9827 359.6054 0018535  85.7286 274.6043 14.79770090238400
CUBEBUG-1 (CAPITAN BETO)
1 39153U 13018D   17268.81517640  .00000305  00000-0  46940-4 0  9995
2 39153  97.9852   0.5773 0018436  83.6900 276.6411 14.80239067238474
ESTCUBE 1               
1 39161U 13021C   17268.80847910  .00000222  00000-0  43281-4 0  9996
2 39161  98.0245 353.4872 0009812 172.4898 187.6462 14.71944201235558
POPACS 1                
1 39268U 13055D   17268.39023912  .00005753  00000-0  16697-3 0  9997
2 39268  81.0017 263.5570 0646029 285.6152  67.4668 14.31972045205056
POPACS 2                
1 39269U 13055E   17268.45749543  .00004824  00000-0  14301-3 0  9998
2 39269  81.0138 280.1886 0697507 328.9910  27.1770 14.20641479205538
POPACS 3                
1 39270U 13055F   17268.50248834  .00004116  00000-0  13032-3 0  9997
2 39270  81.0167 289.3145 0723462 356.5556   3.0769 14.13666877184240
FIREFLY                 
1 39404U 13064AA  17268.66975535  .00153555  14995-4  48715-3 0  9998
2 39404  40.4935  23.3434 0008222  55.0223 305.1381 15.90418955217173
ZACUBE-1 (TSHEPISOSAT)  
1 39417U 13066B   17268.57717312  .00000275  00000-0  41359-4 0  9997
2 39417  97.6202 305.9026 0057935 302.3145  57.2465 14.80773469207630
WNISAT-1                
1 39423U 13066H   17268.89183009  .00000129  00000-0  34629-4 0  9999
2 39423  97.6913 248.9756 0176813 122.9818 238.8544 14.52872102203850
TRITON-1                
1 39427U 13066M   17268.55898483  .00000310  00000-0  57562-4 0  9998
2 39427  97.6374 277.1878 0114986  27.9325 332.7989 14.67516209205571
GOMX 1                  
1 39430U 13066Q   17268.51416354  .00000298  00000-0  62487-4 0  9998
2 39430  97.6715 259.9347 0153356  86.2375 275.6346 14.58922531204569
BRITE-PL                
1 39431U 13066R   17268.46452544  .00000050  00000-0  20562-4 0  9998
2 39431  97.7182 237.3862 0202916 164.9524 195.7831 14.46868654202750
HUMSAT-D                
1 39433U 13066T   17268.21681995  .00000504  00000-0  55477-4 0  9994
2 39433  97.6426 328.3340 0029812 243.0905 116.7267 14.91553103207748
EAGLE 2                 
1 39436U 13066W   17268.82624023  .00041138  00000-0  93941-3 0  9998
2 39436  97.7123  20.0331 0008399  86.3367 273.8840 15.42720296212136
CUBEBUG-2 (LO-74)       
1 39440U 13066AA  17268.68038991  .00000285  00000-0  47080-4 0  9992
2 39440  97.6224 294.4013 0080010 335.3159  24.4230 14.75514497206913
NEE-02 KRYSAOR          
1 39441U 13066AB  17268.54141588  .00000185  00000-0  33619-4 0  9997
2 39441  97.6208 292.8325 0081527 339.7379  20.0601 14.74664328206776
FUNCUBE-1 (AO-73)       
1 39444U 13066AE  17268.57433880  .00000341  00000-0  48976-4 0  9998
2 39444  97.6218 307.0832 0057066 298.6258  60.9223 14.81519712205880
UWE-3                   
1 39446U 13066AG  17268.61446318  .00000265  00000-0  42227-4 0  9993
2 39446  97.6200 299.8239 0069344 319.2442  40.3593 14.78046728205441
BRITE-TORONTO           
1 40020U 14033L   17268.88761812  .00000074  00000-0  21257-4 0  9994
2 40020  97.8202 135.0656 0087880   7.5358 352.7144 14.66422831174848
DUCHIFAT-1              
1 40021U 14033M   17268.76719008  .00000731  00000-0  81625-4 0  9997
2 40021  97.9129 182.0546 0012601 336.6748  23.3896 14.90004847177574
FLOCK 1C-10             
1 40023U 14033P   17268.74370890  .00001043  00000-0  11715-3 0  9998
2 40023  97.9160 180.9739 0013049 342.3105  17.7650 14.88869875177460
NANOSATC-BR1            
1 40024U 14033Q   17268.74803293  .00000521  00000-0  60916-4 0  9995
2 40024  97.9082 180.7614 0011887 338.5725  21.4993 14.89314003177514
QB50P1                  
1 40025U 14033R   17268.31117655  .00000512  00000-0  61141-4 0  9990
2 40025  97.9060 179.2149 0012197 343.0242  17.0565 14.88501195176870
FLOCK 1C-7              
1 40026U 14033S   17268.71090194  .00000487  00000-0  56936-4 0  9990
2 40026  97.9185 181.7981 0011691 340.7983  19.2798 14.89600997177510
FLOCK 1C-1              
1 40027U 14033T   17268.70750560  .00000553  00000-0  64909-4 0  9993
2 40027  97.9179 181.1932 0013073 340.4920  19.5800 14.88928146177478
POPSAT-HIP-1            
1 40028U 14033U   17268.82215755  .00000409  00000-0  50201-4 0  9999
2 40028  97.9089 180.0286 0013708 339.4208  20.6461 14.88367199177449
FLOCK 1C-2              
1 40029U 14033V   17268.80245881  .00001009  00000-0  11326-3 0  9992
2 40029  97.9159 181.1382 0014408 336.3573  23.6975 14.88946499177478
FLOCK 1C-4              
1 40031U 14033X   17268.76178393  .00000721  00000-0  83037-4 0  9992
2 40031  97.9167 181.0604 0014374 333.9243  26.1248 14.88794510177459
QB50P2                  
1 40032U 14033Y   17268.52290058  .00000421  00000-0  51882-4 0  9990
2 40032  97.9027 178.4399 0011421 337.6120  22.4596 14.88055540177369
FLOCK 1C-11             
1 40033U 14033Z   17268.71932141  .00000374  00000-0  44376-4 0  9995
2 40033  97.9183 182.6684 0012137 329.3858  30.6686 14.90267823177563
ANTELSAT                
1 40034U 14033AA  17268.63473667  .00000314  00000-0  54498-4 0  9990
2 40034  97.8438 149.3772 0058484 331.1786  28.6195 14.73759335175183
FLOCK 1C-9              
1 40035U 14033AB  17268.72020715  .00000749  00000-0  85554-4 0  9992
2 40035  97.9197 181.4634 0012291 331.4201  28.6380 14.89002447177463
FLOCK 1C-6              
1 40036U 14033AC  17268.73406245  .00000962  00000-0  10786-3 0  9991
2 40036  97.9191 181.7106 0011758 330.3042  29.7536 14.89109692177480
PERSEUS-M2              
1 40037U 14033AD  17268.30641310  .00000176  00000-0  26254-4 0  9994
2 40037  97.9042 176.5250 0014032 343.4479  16.6276 14.86262314177186
FLOCK 1C-5              
1 40038U 14033AE  17268.74234244  .00000938  00000-0  10544-3 0  9997
2 40038  97.9185 181.5080 0014205 328.9804  31.0565 14.89088121177473
PERSEUS-M1              
1 40039U 14033AF  17268.80286983  .00000182  00000-0  27157-4 0  9992
2 40039  97.9047 176.5307 0013767 337.9420  22.1201 14.85886346177214
